[{"OBJECT_NAME":"O3B FM19","OBJECT_ID":"2019-020B","EPOCH":"2026-01-31T07:32:16.136160","MEAN_MOTION":5.00115915,"ECCENTRICITY":0.00049677,"INCLINATION":0.0617,"RA_OF_ASC_NODE":11.8532,"ARG_OF_PERICENTER":322.0231,"MEAN_ANOMALY":26.0917,"EPHEMERIS_TYPE":0,"CLASSIFICATION_TYPE":"U","NORAD_CAT_ID":44113,"ELEMENT_SET_NO":999,"REV_AT_EPOCH":12459,"BSTAR":0,"MEAN_MOTION_DOT":-2.4e-7,"MEAN_MOTION_DDOT":0},{"OBJECT_NAME":"O3B FM17","OBJECT_ID":"2019-020C","EPOCH":"2026-02-01T09:26:42.351072","MEAN_MOTION":5.00115366,"ECCENTRICITY":0.00027876,"INCLINATION":0.0435,"RA_OF_ASC_NODE":336.1071,"ARG_OF_PERICENTER":330.3762,"MEAN_ANOMALY":53.4835,"EPHEMERIS_TYPE":0,"CLASSIFICATION_TYPE":"U","NORAD_CAT_ID":44114,"ELEMENT_SET_NO":999,"REV_AT_EPOCH":12473,"BSTAR":0,"MEAN_MOTION_DOT":-2.5e-7,"MEAN_MOTION_DDOT":0},{"OBJECT_NAME":"O3B FM18","OBJECT_ID":"2019-020D","EPOCH":"2026-02-01T08:09:21.035520","MEAN_MOTION":5.00115196,"ECCENTRICITY":0.00027832,"INCLINATION":0.0498,"RA_OF_ASC_NODE":359.8318,"ARG_OF_PERICENTER":310.5899,"MEAN_ANOMALY":49.5466,"EPHEMERIS_TYPE":0,"CLASSIFICATION_TYPE":"U","NORAD_CAT_ID":44115,"ELEMENT_SET_NO":999,"REV_AT_EPOCH":12485,"BSTAR":0,"MEAN_MOTION_DOT":-2.5e-7,"MEAN_MOTION_DDOT":0},{"OBJECT_NAME":"SALSAT","OBJECT_ID":"2020-068K","EPOCH":"2026-02-01T23:28:21.133632","MEAN_MOTION":15.27407493,"ECCENTRICITY":0.00120503,"INCLINATION":97.882,"RA_OF_ASC_NODE":28.0663,"ARG_OF_PERICENTER":61.9502,"MEAN_ANOMALY":298.2953,"EPHEMERIS_TYPE":0,"CLASSIFICATION_TYPE":"U","NORAD_CAT_ID":46495,"ELEMENT_SET_NO":999,"REV_AT_EPOCH":29470,"BSTAR":0.00032406807,"MEAN_MOTION_DOT":8.632e-5,"MEAN_MOTION_DDOT":0},{"OBJECT_NAME":"O3B MPOWER F1","OBJECT_ID":"2022-174A","EPOCH":"2026-02-01T22:42:05.481792","MEAN_MOTION":5.0010308,"ECCENTRICITY":0.00049079,"INCLINATION":0.0638,"RA_OF_ASC_NODE":354.3887,"ARG_OF_PERICENTER":335.0288,"MEAN_ANOMALY":263.5516,"EPHEMERIS_TYPE":0,"CLASSIFICATION_TYPE":"U","NORAD_CAT_ID":54755,"ELEMENT_SET_NO":999,"REV_AT_EPOCH":5859,"BSTAR":0,"MEAN_MOTION_DOT":-2.6e-7,"MEAN_MOTION_DDOT":0},{"OBJECT_NAME":"O3B MPOWER F2","OBJECT_ID":"2022-174B","EPOCH":"2026-02-01T09:17:24.596736","MEAN_MOTION":5.00731378,"ECCENTRICITY":0.00017977,"INCLINATION":0.0645,"RA_OF_ASC_NODE":350.4228,"ARG_OF_PERICENTER":213.7335,"MEAN_ANOMALY":155.8278,"EPHEMERIS_TYPE":0,"CLASSIFICATION_TYPE":"U","NORAD_CAT_ID":54756,"ELEMENT_SET_NO":999,"REV_AT_EPOCH":5864,"BSTAR":0,"MEAN_MOTION_DOT":-2.5e-7,"MEAN_MOTION_DDOT":0},{"OBJECT_NAME":"O3B MPOWER F4","OBJECT_ID":"2023-059A","EPOCH":"2026-02-01T15:35:08.156544","MEAN_MOTION":5.0011956,"ECCENTRICITY":0.00063752,"INCLINATION":0.057,"RA_OF_ASC_NODE":9.6445,"ARG_OF_PERICENTER":318.1707,"MEAN_ANOMALY":32.1383,"EPHEMERIS_TYPE":0,"CLASSIFICATION_TYPE":"U","NORAD_CAT_ID":56367,"ELEMENT_SET_NO":999,"REV_AT_EPOCH":5182,"BSTAR":0,"MEAN_MOTION_DOT":-2.5e-7,"MEAN_MOTION_DDOT":0},{"OBJECT_NAME":"O3B MPOWER F3","OBJECT_ID":"2023-059B","EPOCH":"2026-01-22T21:15:22.512672","MEAN_MOTION":4.99243546,"ECCENTRICITY":0.00142602,"INCLINATION":0.0543,"RA_OF_ASC_NODE":12.48,"ARG_OF_PERICENTER":319.1455,"MEAN_ANOMALY":28.2939,"EPHEMERIS_TYPE":0,"CLASSIFICATION_TYPE":"U","NORAD_CAT_ID":56368,"ELEMENT_SET_NO":999,"REV_AT_EPOCH":4746,"BSTAR":0,"MEAN_MOTION_DOT":-9.0e-8,"MEAN_MOTION_DDOT":0}]
