O3B FM19                
1 44113U 19020B   26031.31407565 -.00000024  00000+0  00000+0 0  9993
2 44113   0.0617  11.8532 0004967 322.0231  26.0917  5.00115915124591
O3B FM17                
1 44114U 19020C   26032.39354573 -.00000025  00000+0  00000+0 0  9994
2 44114   0.0435 336.1071 0002787 330.3762  53.4835  5.00115366124739
O3B FM18                
1 44115U 19020D   26032.33982680 -.00000025  00000+0  00000+0 0  9995
2 44115   0.0498 359.8318 0002783 310.5899  49.5466  5.00115196124852
SALSAT                  
1 46495U 20068K   26032.97802238  .00008632  00000+0  32407-3 0  9993
2 46495  97.8820  28.0663 0012050  61.9502 298.2953 15.27407493294702
O3B MPOWER F1           
1 54755U 22174A   26032.94589678 -.00000026  00000+0  00000+0 0  9998
2 54755   0.0638 354.3887 0004907 335.0288 263.5516  5.00103080 58594
O3B MPOWER F2           
1 54756U 22174B   26032.38709024 -.00000025  00000+0  00000+0 0  9995
2 54756   0.0645 350.4228 0001797 213.7335 155.8278  5.00731378 58649
O3B MPOWER F4           
1 56367U 23059A   26032.64939996 -.00000025  00000+0  00000+0 0  9990
2 56367   0.0570   9.6445 0006375 318.1707  32.1383  5.00119560 51820
O3B MPOWER F3           
1 56368U 23059B   26022.88567723 -.00000009  00000+0  00000+0 0  9993
2 56368   0.0543  12.4800 0014260 319.1455  28.2939  4.99243546 47468
